{
  "type": "FeatureCollection",
  "features": [
    {
      "type": "Feature",
      "properties": {
        "norad_id": 43058,
        "name": "GSAT0218 (GALILEO 22)",
        "group": "gnss",
        "lat": -31.275956563372702,
        "lon": -158.22081476554348,
        "alt_km": 23217.889739430913,
        "timestamp": "2025-12-06T16:45:42.966052+00:00",
        "meta_object_name": "GSAT0218 (GALILEO 22)",
        "meta_object_id": "2017-079D",
        "meta_epoch": "2025-12-03T05:49:40.297728",
        "meta_mean_motion": 1.70473824,
        "meta_eccentricity": 0.00029171,
        "meta_inclination": 55.1321,
        "meta_ra_of_asc_node": 226.8951,
        "meta_arg_of_pericenter": 304.1404,
        "meta_mean_anomaly": 55.9211,
        "meta_ephemeris_type": 0,
        "meta_classification_type": "U",
        "meta_norad_cat_id": 43058,
        "meta_element_set_no": 999,
        "meta_rev_at_epoch": 4967,
        "meta_bstar": 0,
        "meta_mean_motion_dot": 3.9e-07,
        "meta_mean_motion_ddot": 0,
        "tle_line1": "1 43058U 17079D   25337.24282752  .00000039  00000+0  00000+0 0  9996",
        "tle_line2": "2 43058  55.1321 226.8951 0002917 304.1404  55.9211  1.70473824 49672"
      },
      "geometry": {
        "type": "Point",
        "coordinates": [
          -158.22081476554348,
          -31.275956563372702
        ]
      }
    },
    {
      "type": "Feature",
      "properties": {
        "norad_id": 43107,
        "name": "BEIDOU-3 M7 (C27)",
        "group": "gnss",
        "lat": 52.307326456794996,
        "lon": 16.38780553053599,
        "alt_km": 21514.401240948628,
        "timestamp": "2025-12-06T16:45:42.966064+00:00",
        "meta_object_name": "BEIDOU-3 M7 (C27)",
        "meta_object_id": "2018-003A",
        "meta_epoch": "2025-12-05T12:15:18.978048",
        "meta_mean_motion": 1.86232243,
        "meta_eccentricity": 0.00026626,
        "meta_inclination": 54.5032,
        "meta_ra_of_asc_node": 309.0664,
        "meta_arg_of_pericenter": 69.7812,
        "meta_mean_anomaly": 290.2304,
        "meta_ephemeris_type": 0,
        "meta_classification_type": "U",
        "meta_norad_cat_id": 43107,
        "meta_element_set_no": 999,
        "meta_rev_at_epoch": 5374,
        "meta_bstar": 0,
        "meta_mean_motion_dot": -7.1e-07,
        "meta_mean_motion_ddot": 0,
        "tle_line1": "1 43107U 18003A   25339.51063632 -.00000071  00000+0  00000+0 0  9992",
        "tle_line2": "2 43107  54.5032 309.0664 0002662  69.7812 290.2304  1.86232243 53743"
      },
      "geometry": {
        "type": "Point",
        "coordinates": [
          16.38780553053599,
          52.307326456794996
        ]
      }
    },
    {
      "type": "Feature",
      "properties": {
        "norad_id": 43108,
        "name": "BEIDOU-3 M8 (C28)",
        "group": "gnss",
        "lat": 48.39497597325249,
        "lon": 75.52516104097893,
        "alt_km": 21534.942717401704,
        "timestamp": "2025-12-06T16:45:42.966075+00:00",
        "meta_object_name": "BEIDOU-3 M8 (C28)",
        "meta_object_id": "2018-003B",
        "meta_epoch": "2025-12-05T23:49:06.243168",
        "meta_mean_motion": 1.86230755,
        "meta_eccentricity": 0.00047661,
        "meta_inclination": 54.4957,
        "meta_ra_of_asc_node": 309.0324,
        "meta_arg_of_pericenter": 274.7089,
        "meta_mean_anomaly": 85.2198,
        "meta_ephemeris_type": 0,
        "meta_classification_type": "U",
        "meta_norad_cat_id": 43108,
        "meta_element_set_no": 999,
        "meta_rev_at_epoch": 5376,
        "meta_bstar": 0,
        "meta_mean_motion_dot": -7.1e-07,
        "meta_mean_motion_ddot": 0,
        "tle_line1": "1 43108U 18003B   25339.99243337 -.00000071  00000+0  00000+0 0  9997",
        "tle_line2": "2 43108  54.4957 309.0324 0004766 274.7089  85.2198  1.86230755 53764"
      },
      "geometry": {
        "type": "Point",
        "coordinates": [
          75.52516104097893,
          48.39497597325249
        ]
      }
    },
    {
      "type": "Feature",
      "properties": {
        "norad_id": 43207,
        "name": "BEIDOU-3 M4 (C22)",
        "group": "gnss",
        "lat": 2.412875847642807,
        "lon": -112.08475451437837,
        "alt_km": 21538.902800994183,
        "timestamp": "2025-12-06T16:45:42.966087+00:00",
        "meta_object_name": "BEIDOU-3 M4 (C22)",
        "meta_object_id": "2018-018A",
        "meta_epoch": "2025-12-02T03:19:43.852800",
        "meta_mean_motion": 1.86230706,
        "meta_eccentricity": 0.00040749,
        "meta_inclination": 56.4768,
        "meta_ra_of_asc_node": 69.6557,
        "meta_arg_of_pericenter": 15.1369,
        "meta_mean_anomaly": 344.8773,
        "meta_ephemeris_type": 0,
        "meta_classification_type": "U",
        "meta_norad_cat_id": 43207,
        "meta_element_set_no": 999,
        "meta_rev_at_epoch": 5307,
        "meta_bstar": 0,
        "meta_mean_motion_dot": -4.5e-07,
        "meta_mean_motion_ddot": 0,
        "tle_line1": "1 43207U 18018A   25336.13870200 -.00000045  00000+0  00000+0 0  9992",
        "tle_line2": "2 43207  56.4768  69.6557 0004074  15.1369 344.8773  1.86230706 53076"
      },
      "geometry": {
        "type": "Point",
        "coordinates": [
          -112.08475451437837,
          2.412875847642807
        ]
      }
    },
    {
      "type": "Feature",
      "properties": {
        "norad_id": 43208,
        "name": "BEIDOU-3 M3 (C21)",
        "group": "gnss",
        "lat": 37.990636924094524,
        "lon": -141.60469408651383,
        "alt_km": 21540.917560993166,
        "timestamp": "2025-12-06T16:45:42.966100+00:00",
        "meta_object_name": "BEIDOU-3 M3 (C21)",
        "meta_object_id": "2018-018B",
        "meta_epoch": "2025-12-03T06:41:57.693408",
        "meta_mean_motion": 1.86230862,
        "meta_eccentricity": 0.0006282,
        "meta_inclination": 56.4772,
        "meta_ra_of_asc_node": 69.6218,
        "meta_arg_of_pericenter": 317.5873,
        "meta_mean_anomaly": 42.3668,
        "meta_ephemeris_type": 0,
        "meta_classification_type": "U",
        "meta_norad_cat_id": 43208,
        "meta_element_set_no": 999,
        "meta_rev_at_epoch": 5309,
        "meta_bstar": 0,
        "meta_mean_motion_dot": -4.9e-07,
        "meta_mean_motion_ddot": 0,
        "tle_line1": "1 43208U 18018B   25337.27913997 -.00000049  00000+0  00000+0 0  9994",
        "tle_line2": "2 43208  56.4772  69.6218 0006282 317.5873  42.3668  1.86230862 53096"
      },
      "geometry": {
        "type": "Point",
        "coordinates": [
          -141.60469408651383,
          37.990636924094524
        ]
      }
    },
    {
      "type": "Feature",
      "properties": {
        "norad_id": 43245,
        "name": "BEIDOU-3 M9 (C29)",
        "group": "gnss",
        "lat": -10.098301837693008,
        "lon": -60.67779518155488,
        "alt_km": 21528.447343923446,
        "timestamp": "2025-12-06T16:45:42.966111+00:00",
        "meta_object_name": "BEIDOU-3 M9 (C29)",
        "meta_object_id": "2018-029A",
        "meta_epoch": "2025-12-06T04:19:14.769120",
        "meta_mean_motion": 1.86227839,
        "meta_eccentricity": 0.00016618,
        "meta_inclination": 54.3718,
        "meta_ra_of_asc_node": 306.6963,
        "meta_arg_of_pericenter": 275.8871,
        "meta_mean_anomaly": 84.077,
        "meta_ephemeris_type": 0,
        "meta_classification_type": "U",
        "meta_norad_cat_id": 43245,
        "meta_element_set_no": 999,
        "meta_rev_at_epoch": 5230,
        "meta_bstar": 0,
        "meta_mean_motion_dot": -6.9e-07,
        "meta_mean_motion_ddot": 0,
        "tle_line1": "1 43245U 18029A   25340.18003205 -.00000069  00000+0  00000+0 0  9995",
        "tle_line2": "2 43245  54.3718 306.6963 0001661 275.8871  84.0770  1.86227839 52305"
      },
      "geometry": {
        "type": "Point",
        "coordinates": [
          -60.67779518155488,
          -10.098301837693008
        ]
      }
    },
    {
      "type": "Feature",
      "properties": {
        "norad_id": 43246,
        "name": "BEIDOU-3 M10 (C30)",
        "group": "gnss",
        "lat": 24.71704070624753,
        "lon": -34.053276883320244,
        "alt_km": 21515.642384867035,
        "timestamp": "2025-12-06T16:45:42.966124+00:00",
        "meta_object_name": "BEIDOU-3 M10 (C30)",
        "meta_object_id": "2018-029B",
        "meta_epoch": "2025-12-05T00:59:36.820032",
        "meta_mean_motion": 1.86228856,
        "meta_eccentricity": 0.00040279,
        "meta_inclination": 54.3703,
        "meta_ra_of_asc_node": 306.7635,
        "meta_arg_of_pericenter": 0.0249,
        "meta_mean_anomaly": 359.9572,
        "meta_ephemeris_type": 0,
        "meta_classification_type": "U",
        "meta_norad_cat_id": 43246,
        "meta_element_set_no": 999,
        "meta_rev_at_epoch": 5226,
        "meta_bstar": 0,
        "meta_mean_motion_dot": -6.9e-07,
        "meta_mean_motion_ddot": 0,
        "tle_line1": "1 43246U 18029B   25339.04139838 -.00000069  00000+0  00000+0 0  9991",
        "tle_line2": "2 43246  54.3703 306.7635 0004027   0.0249 359.9572  1.86228856 52262"
      },
      "geometry": {
        "type": "Point",
        "coordinates": [
          -34.053276883320244,
          24.71704070624753
        ]
      }
    }
  ]
}